STARLINK-2251
1 18594C 21041AT  21326.18797486  .00003492  00000-0  23920-3 0  3263
2 18594  53.0544 312.2147 0002112  55.0426  56.8784 15.05577049    13
